[{"OBJECT_NAME":"STARLINK-1522","OBJECT_ID":"2020-055A","EPOCH":"2024-01-23T05:42:33.965568","MEAN_MOTION":15.06393906,"ECCENTRICITY":0.0001475,"INCLINATION":53.0547,"RA_OF_ASC_NODE":12.2431,"ARG_OF_PERICENTER":88.5741,"MEAN_ANOMALY":271.5417,"EPHEMERIS_TYPE":0,"CLASSIFICATION_TYPE":"U","NORAD_CAT_ID":46027,"ELEMENT_SET_NO":999,"REV_AT_EPOCH":19185,"BSTAR":0.00023003,"MEAN_MOTION_DOT":3.146e-5,"MEAN_MOTION_DDOT":0},{"OBJECT_NAME":"STARLINK-1523","OBJECT_ID":"2020-055B","EPOCH":"2024-01-23T06:03:46.954656","MEAN_MOTION":15.06396638,"ECCENTRICITY":0.0001216,"INCLINATION":53.055,"RA_OF_ASC_NODE":12.172,"ARG_OF_PERICENTER":105.724,"MEAN_ANOMALY":254.3883,"EPHEMERIS_TYPE":0,"CLASSIFICATION_TYPE":"U","NORAD_CAT_ID":46028,"ELEMENT_SET_NO":999,"REV_AT_EPOCH":19187,"BSTAR":3.7656e-5,"MEAN_MOTION_DOT":2.8e-6,"MEAN_MOTION_DDOT":0},{"OBJECT_NAME":"STARLINK-1526","OBJECT_ID":"2020-055C","EPOCH":"2024-01-23T05:53:10.427712","MEAN_MOTION":15.06398437,"ECCENTRICITY":0.0001361,"INCLINATION":53.056,"RA_OF_ASC_NODE":12.2017,"ARG_OF_PERICENTER":83.7896,"MEAN_ANOMALY":276.3248,"EPHEMERIS_TYPE":0,"CLASSIFICATION_TYPE":"U","NORAD_CAT_ID":46029,"ELEMENT_SET_NO":999,"REV_AT_EPOCH":19186,"BSTAR":0.00014569,"MEAN_MOTION_DOT":1.889e-5,"MEAN_MOTION_DDOT":0},{"OBJECT_NAME":"STARLINK-1534","OBJECT_ID":"2020-055D","EPOCH":"2024-01-23T04:44:10.328928","MEAN_MOTION":15.06391667,"ECCENTRICITY":0.0001278,"INCLINATION":53.0558,"RA_OF_ASC_NODE":12.4339,"ARG_OF_PERICENTER":88.4572,"MEAN_ANOMALY":271.6564,"EPHEMERIS_TYPE":0,"CLASSIFICATION_TYPE":"U","NORAD_CAT_ID":46030,"ELEMENT_SET_NO":999,"REV_AT_EPOCH":19181,"BSTAR":-6.216e-5,"MEAN_MOTION_DOT":-1.207e-5,"MEAN_MOTION_DDOT":0},{"OBJECT_NAME":"STARLINK-1544","OBJECT_ID":"2020-055E","EPOCH":"2024-01-23T05:31:47.196768","MEAN_MOTION":15.04762535,"ECCENTRICITY":0.000183,"INCLINATION":53.0567,"RA_OF_ASC_NODE":12.5906,"ARG_OF_PERICENTER":72.6825,"MEAN_ANOMALY":287.4364,"EPHEMERIS_TYPE":0,"CLASSIFICATION_TYPE":"U","NORAD_CAT_ID":46031,"ELEMENT_SET_NO":999,"REV_AT_EPOCH":19184,"BSTAR":9.6241e-5,"MEAN_MOTION_DOT":1.095e-5,"MEAN_MOTION_DDOT":0},{"OBJECT_NAME":"STARLINK-1555","OBJECT_ID":"2020-055F","EPOCH":"2024-01-23T05:31:55.348608","MEAN_MOTION":15.06381323,"ECCENTRICITY":0.0001221,"INCLINATION":53.0554,"RA_OF_ASC_NODE":12.2767,"ARG_OF_PERICENTER":89.4039,"MEAN_ANOMALY":270.7089,"EPHEMERIS_TYPE":0,"CLASSIFICATION_TYPE":"U","NORAD_CAT_ID":46032,"ELEMENT_SET_NO":999,"REV_AT_EPOCH":19186,"BSTAR":-0.00022959,"MEAN_MOTION_DOT":-3.698e-5,"MEAN_MOTION_DDOT":0},{"OBJECT_NAME":"STARLINK-1556","OBJECT_ID":"2020-055G","EPOCH":"2024-01-23T06:40:57.009504","MEAN_MOTION":15.06397773,"ECCENTRICITY":0.0001535,"INCLINATION":53.0553,"RA_OF_ASC_NODE":12.0593,"ARG_OF_PERICENTER":99.5873,"MEAN_ANOMALY":260.5289,"EPHEMERIS_TYPE":0,"CLASSIFICATION_TYPE":"U","NORAD_CAT_ID":46033,"ELEMENT_SET_NO":999,"REV_AT_EPOCH":19184,"BSTAR":0.00012389,"MEAN_MOTION_DOT":1.564e-5,"MEAN_MOTION_DDOT":0},{"OBJECT_NAME":"STARLINK-1557","OBJECT_ID":"2020-055H","EPOCH":"2024-01-23T06:46:15.252672","MEAN_MOTION":15.06400661,"ECCENTRICITY":0.0001437,"INCLINATION":53.0549,"RA_OF_ASC_NODE":12.0481,"ARG_OF_PERICENTER":87.2821,"MEAN_ANOMALY":272.8333,"EPHEMERIS_TYPE":0,"CLASSIFICATION_TYPE":"U","NORAD_CAT_ID":46034,"ELEMENT_SET_NO":999,"REV_AT_EPOCH":19184,"BSTAR":0.00052717,"MEAN_MOTION_DOT":7.579e-5,"MEAN_MOTION_DDOT":0},{"OBJECT_NAME":"STARLINK-1558","OBJECT_ID":"2020-055J","EPOCH":"2024-01-23T06:56:52.219392","MEAN_MOTION":15.06398436,"ECCENTRICITY":0.0001452,"INCLINATION":53.0555,"RA_OF_ASC_NODE":12.0135,"ARG_OF_PERICENTER":86.7307,"MEAN_ANOMALY":273.3848,"EPHEMERIS_TYPE":0,"CLASSIFICATION_TYPE":"U","NORAD_CAT_ID":46035,"ELEMENT_SET_NO":999,"REV_AT_EPOCH":19187,"BSTAR":0.00019902,"MEAN_MOTION_DOT":2.684e-5,"MEAN_MOTION_DDOT":0},{"OBJECT_NAME":"STARLINK-1560","OBJECT_ID":"2020-055K","EPOCH":"2024-01-23T06:35:38.333472","MEAN_MOTION":15.06394853,"ECCENTRICITY":0.0001453,"INCLINATION":53.0549,"RA_OF_ASC_NODE":12.078,"ARG_OF_PERICENTER":81.902,"MEAN_ANOMALY":278.2134,"EPHEMERIS_TYPE":0,"CLASSIFICATION_TYPE":"U","NORAD_CAT_ID":46036,"ELEMENT_SET_NO":999,"REV_AT_EPOCH":19187,"BSTAR":8.2249e-5,"MEAN_MOTION_DOT":9.44e-6,"MEAN_MOTION_DDOT":0},{"OBJECT_NAME":"STARLINK-1565","OBJECT_ID":"2020-055L","EPOCH":"2024-01-23T06:30:20.401344","MEAN_MOTION":15.063931,"ECCENTRICITY":0.0001493,"INCLINATION":53.0557,"RA_OF_ASC_NODE":12.1008,"ARG_OF_PERICENTER":85.8746,"MEAN_ANOMALY":274.2414,"EPHEMERIS_TYPE":0,"CLASSIFICATION_TYPE":"U","NORAD_CAT_ID":46037,"ELEMENT_SET_NO":999,"REV_AT_EPOCH":19186,"BSTAR":0.00012775,"MEAN_MOTION_DOT":1.621e-5,"MEAN_MOTION_DDOT":0},{"OBJECT_NAME":"STARLINK-1567","OBJECT_ID":"2020-055M","EPOCH":"2024-01-23T06:51:33.650496","MEAN_MOTION":15.06400953,"ECCENTRICITY":0.0001487,"INCLINATION":53.056,"RA_OF_ASC_NODE":12.0257,"ARG_OF_PERICENTER":90.6724,"MEAN_ANOMALY":269.4435,"EPHEMERIS_TYPE":0,"CLASSIFICATION_TYPE":"U","NORAD_CAT_ID":46038,"ELEMENT_SET_NO":999,"REV_AT_EPOCH":19186,"BSTAR":3.4356e-5,"MEAN_MOTION_DOT":2.3e-6,"MEAN_MOTION_DDOT":0},{"OBJECT_NAME":"STARLINK-1569","OBJECT_ID":"2020-055N","EPOCH":"2024-01-23T05:26:37.981536","MEAN_MOTION":15.06400127,"ECCENTRICITY":0.0002134,"INCLINATION":53.0562,"RA_OF_ASC_NODE":12.2879,"ARG_OF_PERICENTER":138.0714,"MEAN_ANOMALY":222.0439,"EPHEMERIS_TYPE":0,"CLASSIFICATION_TYPE":"U","NORAD_CAT_ID":46039,"ELEMENT_SET_NO":999,"REV_AT_EPOCH":19185,"BSTAR":0.00011265,"MEAN_MOTION_DOT":1.397e-5,"MEAN_MOTION_DDOT":0},{"OBJECT_NAME":"STARLINK-1576","OBJECT_ID":"2020-055P","EPOCH":"2024-01-23T04:33:34.024032","MEAN_MOTION":15.06411114,"ECCENTRICITY":0.0002348,"INCLINATION":53.0555,"RA_OF_ASC_NODE":12.4519,"ARG_OF_PERICENTER":134.022,"MEAN_ANOMALY":226.0963,"EPHEMERIS_TYPE":0,"CLASSIFICATION_TYPE":"U","NORAD_CAT_ID":46040,"ELEMENT_SET_NO":999,"REV_AT_EPOCH":19181,"BSTAR":0.0010864,"MEAN_MOTION_DOT":0.00015942,"MEAN_MOTION_DDOT":0},{"OBJECT_NAME":"STARLINK-1580","OBJECT_ID":"2020-055Q","EPOCH":"2024-01-23T04:49:29.495712","MEAN_MOTION":15.06394295,"ECCENTRICITY":0.0001473,"INCLINATION":53.0552,"RA_OF_ASC_NODE":12.4995,"ARG_OF_PERICENTER":97.3522,"MEAN_ANOMALY":262.7634,"EPHEMERIS_TYPE":0,"CLASSIFICATION_TYPE":"U","NORAD_CAT_ID":46041,"ELEMENT_SET_NO":999,"REV_AT_EPOCH":19182,"BSTAR":-0.00010749,"MEAN_MOTION_DOT":-1.882e-5,"MEAN_MOTION_DDOT":0},{"OBJECT_NAME":"STARLINK-1581","OBJECT_ID":"2020-055R","EPOCH":"2024-01-23T05:47:51.686880","MEAN_MOTION":15.06397889,"ECCENTRICITY":0.0001286,"INCLINATION":53.0543,"RA_OF_ASC_NODE":12.2276,"ARG_OF_PERICENTER":97.5859,"MEAN_ANOMALY":262.5276,"EPHEMERIS_TYPE":0,"CLASSIFICATION_TYPE":"U","NORAD_CAT_ID":46042,"ELEMENT_SET_NO":999,"REV_AT_EPOCH":19182,"BSTAR":0.00011297,"MEAN_MOTION_DOT":1.402e-5,"MEAN_MOTION_DDOT":0},{"OBJECT_NAME":"STARLINK-1582","OBJECT_ID":"2020-055S","EPOCH":"2024-01-23T05:37:15.299040","MEAN_MOTION":15.06390133,"ECCENTRICITY":0.0001728,"INCLINATION":53.0568,"RA_OF_ASC_NODE":12.2559,"ARG_OF_PERICENTER":100.4225,"MEAN_ANOMALY":259.6959,"EPHEMERIS_TYPE":0,"CLASSIFICATION_TYPE":"U","NORAD_CAT_ID":46043,"ELEMENT_SET_NO":999,"REV_AT_EPOCH":19185,"BSTAR":4.7566e-5,"MEAN_MOTION_DOT":4.27e-6,"MEAN_MOTION_DDOT":0}]
