STARLINK-1522           
1 46027U 20055A   24023.23789312  .00003146  00000+0  23003-3 0  9991
2 46027  53.0547  12.2431 0001475  88.5741 271.5417 15.06393906191851
STARLINK-1523           
1 46028U 20055B   24023.25262679  .00000280  00000+0  37656-4 0  9992
2 46028  53.0550  12.1720 0001216 105.7240 254.3883 15.06396638191878
STARLINK-1526           
1 46029U 20055C   24023.24525958  .00001889  00000+0  14569-3 0  9997
2 46029  53.0560  12.2017 0001361  83.7896 276.3248 15.06398437191860
STARLINK-1534           
1 46030U 20055D   24023.19734177 -.00001207  00000+0 -62160-4 0  9995
2 46030  53.0558  12.4339 0001278  88.4572 271.6564 15.06391667191810
STARLINK-1544           
1 46031U 20055E   24023.23040737  .00001095  00000+0  96241-4 0  9993
2 46031  53.0567  12.5906 0001830  72.6825 287.4364 15.04762535191842
STARLINK-1555           
1 46032U 20055F   24023.23050172 -.00003698  00000+0 -22959-3 0  9995
2 46032  53.0554  12.2767 0001221  89.4039 270.7089 15.06381323191863
STARLINK-1556           
1 46033U 20055G   24023.27843761  .00001564  00000+0  12389-3 0  9998
2 46033  53.0553  12.0593 0001535  99.5873 260.5289 15.06397773191353
STARLINK-1557           
1 46034U 20055H   24023.28212098  .00007579  00000+0  52717-3 0  9994
2 46034  53.0549  12.0481 0001437  87.2821 272.8333 15.06400661191844
STARLINK-1558           
1 46035U 20055J   24023.28949328  .00002684  00000+0  19902-3 0  9999
2 46035  53.0555  12.0135 0001452  86.7307 273.3848 15.06398436191874
STARLINK-1560           
1 46036U 20055K   24023.27474923  .00000944  00000+0  82249-4 0  9995
2 46036  53.0549  12.0780 0001453  81.9020 278.2134 15.06394853191875
STARLINK-1565           
1 46037U 20055L   24023.27106946  .00001621  00000+0  12775-3 0  9992
2 46037  53.0557  12.1008 0001493  85.8746 274.2414 15.06393100191861
STARLINK-1567           
1 46038U 20055M   24023.28580614  .00000230  00000+0  34356-4 0  9997
2 46038  53.0560  12.0257 0001487  90.6724 269.4435 15.06400953191868
STARLINK-1569           
1 46039U 20055N   24023.22682849  .00001397  00000+0  11265-3 0  9993
2 46039  53.0562  12.2879 0002134 138.0714 222.0439 15.06400127191850
STARLINK-1576           
1 46040U 20055P   24023.18997713  .00015942  00000+0  10864-2 0  9993
2 46040  53.0555  12.4519 0002348 134.0220 226.0963 15.06411114191340
STARLINK-1580           
1 46041U 20055Q   24023.20103583 -.00001882  00000+0 -10749-3 0  9994
2 46041  53.0552  12.4995 0001473  97.3522 262.7634 15.06394295191825
STARLINK-1581           
1 46042U 20055R   24023.24157045  .00001402  00000+0  11297-3 0  9996
2 46042  53.0543  12.2276 0001286  97.5859 262.5276 15.06397889191825
STARLINK-1582           
1 46043U 20055S   24023.23420485  .00000427  00000+0  47566-4 0  9992
2 46043  53.0568  12.2559 0001728 100.4225 259.6959 15.06390133191852
